[{"OBJECT_NAME":"ASTROCAST-0404","OBJECT_ID":"2023-001DH","EPOCH":"2026-03-09T19:24:02.920896","MEAN_MOTION":15.26309833,"ECCENTRICITY":0.00068478,"INCLINATION":97.5646,"RA_OF_ASC_NODE":161.5422,"ARG_OF_PERICENTER":1.1317,"MEAN_ANOMALY":358.9936,"EPHEMERIS_TYPE":0,"CLASSIFICATION_TYPE":"U","NORAD_CAT_ID":55112,"ELEMENT_SET_NO":999,"REV_AT_EPOCH":12936,"BSTAR":0.00034435555,"MEAN_MOTION_DOT":8.87e-5,"MEAN_MOTION_DDOT":0},{"OBJECT_NAME":"STARLINK-30250","OBJECT_ID":"2023-115G","EPOCH":"2026-03-09T04:37:04.931616","MEAN_MOTION":15.26761278,"ECCENTRICITY":4.786e-5,"INCLINATION":42.9981,"RA_OF_ASC_NODE":4.5339,"ARG_OF_PERICENTER":287.7071,"MEAN_ANOMALY":72.3728,"EPHEMERIS_TYPE":0,"CLASSIFICATION_TYPE":"U","NORAD_CAT_ID":57527,"ELEMENT_SET_NO":999,"REV_AT_EPOCH":14317,"BSTAR":-0.00023974414,"MEAN_MOTION_DOT":-6.688e-5,"MEAN_MOTION_DDOT":0}]
